{
    "links": {
        "self": "http://www.neowsapp.com/rest/v1/neo/3699451?api_key=iIulBulltgU6a56xZRHN4H3l9WmuAYTsLGpBGhQ2"
    },
    "id": "3699451",
    "neo_reference_id": "3699451",
    "name": "(2014 WB363)",
    "designation": "2014 WB363",
    "nasa_jpl_url": "http://ssd.jpl.nasa.gov/sbdb.cgi?sstr=3699451",
    "absolute_magnitude_h": 21.1,
    "estimated_diameter": {
        "kilometers": {
            "estimated_diameter_min": 0.160160338,
            "estimated_diameter_max": 0.358129403
        },
        "meters": {
            "estimated_diameter_min": 160.1603379786,
            "estimated_diameter_max": 358.1294030194
        },
        "miles": {
            "estimated_diameter_min": 0.0995189894,
            "estimated_diameter_max": 0.2225312253
        },
        "feet": {
            "estimated_diameter_min": 525.4604432536,
            "estimated_diameter_max": 1174.9652706022
        }
    },
    "is_potentially_hazardous_asteroid": false,
    "close_approach_data": [
        {
            "close_approach_date": "2014-12-03",
            "close_approach_date_full": "2014-Dec-03 15:04",
            "epoch_date_close_approach": 1417619040000,
            "relative_velocity": {
                "kilometers_per_second": "6.0277421108",
                "kilometers_per_hour": "21699.8715988038",
                "miles_per_hour": "13483.4563276012"
            },
            "miss_distance": {
                "astronomical": "0.3674563668",
                "lunar": "142.9405266852",
                "kilometers": "54970689.791218716",
                "miles": "34157202.7457256408"
            },
            "orbiting_body": "Earth"
        },
        {
            "close_approach_date": "2021-12-09",
            "close_approach_date_full": "2021-Dec-09 02:43",
            "epoch_date_close_approach": 1639017780000,
            "relative_velocity": {
                "kilometers_per_second": "5.8521018035",
                "kilometers_per_hour": "21067.5664925544",
                "miles_per_hour": "13090.5665242208"
            },
            "miss_distance": {
                "astronomical": "0.3013213323",
                "lunar": "117.2139982647",
                "kilometers": "45077029.497642201",
                "miles": "28009567.3089403338"
            },
            "orbiting_body": "Earth"
        },
        {
            "close_approach_date": "2028-12-12",
            "close_approach_date_full": "2028-Dec-12 19:25",
            "epoch_date_close_approach": 1860261900000,
            "relative_velocity": {
                "kilometers_per_second": "5.7892528478",
                "kilometers_per_hour": "20841.3102519684",
                "miles_per_hour": "12949.9796951745"
            },
            "miss_distance": {
                "astronomical": "0.2736860401",
                "lunar": "106.4638695989",
                "kilometers": "40942848.647694587",
                "miles": "25440706.4484438206"
            },
            "orbiting_body": "Earth"
        },
        {
            "close_approach_date": "2035-12-18",
            "close_approach_date_full": "2035-Dec-18 06:27",
            "epoch_date_close_approach": 2081572020000,
            "relative_velocity": {
                "kilometers_per_second": "5.9031366994",
                "kilometers_per_hour": "21251.2921178044",
                "miles_per_hour": "13204.7264828658"
            },
            "miss_distance": {
                "astronomical": "0.2798234469",
                "lunar": "108.8513208441",
                "kilometers": "41860991.632298103",
                "miles": "26011214.0442877014"
            },
            "orbiting_body": "Earth"
        }
    ],
    "orbital_data": {
        "orbit_id": "10",
        "orbit_determination_date": "2018-02-10 07:06:00",
        "first_observation_date": "2014-11-25",
        "last_observation_date": "2015-01-16",
        "data_arc_in_days": 52,
        "observations_used": 40,
        "orbit_uncertainty": "5",
        "minimum_orbit_intersection": ".269434",
        "jupiter_tisserand_invariant": "3.426",
        "epoch_osculation": "2459000.5",
        "eccentricity": ".4556074226351856",
        "semi_major_axis": "2.302416922880869",
        "inclination": "10.154966554719",
        "ascending_node_longitude": "263.1270058042542",
        "orbital_period": "1276.069651057781",
        "perihelion_distance": "1.253418682815481",
        "perihelion_argument": "179.5422814819579",
        "aphelion_distance": "3.351415162946257",
        "perihelion_time": "2459570.321194360609",
        "mean_anomaly": "199.2441746422113",
        "mean_motion": ".2821162619936794",
        "equinox": "J2000",
        "orbit_class": {
            "orbit_class_type": "AMO",
            "orbit_class_description": "Near-Earth asteroid orbits similar to that of 1221 Amor",
            "orbit_class_range": "1.017 AU < q (perihelion) < 1.3 AU"
        }
    },
    "is_sentry_object": false
}